start=new Date('2022-07-06T00:00:00.000Z').valueOf();
sats=[{"SEMIMAJOR_AXIS":"6705.268","MEAN_MOTION_DOT":"0.00068886","BSTAR":"0.00034357000000","EPOCH":"2022-07-05T07:44:36.205728","FILE":"3508171","NORAD_CAT_ID":"45752","RA_OF_ASC_NODE":"164.9576","MEAN_ELEMENT_THEORY":"SGP4","CENTER_NAME":"EARTH","DECAY_DATE":null,"TLE_LINE2":"2 45752  52.9927 164.9576 0011196  26.6802 333.4793 15.81169860118466","PERIOD":"91.072","INCLINATION":"52.9927","ELEMENT_SET_NO":"999","REV_AT_EPOCH":"11846","TLE_LINE1":"1 45752U 20038Y   22186.32264127  .00068886  00000-0  34357-3 0  9993","TIME_SYSTEM":"UTC","GP_ID":"207474697","MEAN_MOTION":"15.81169860","MEAN_MOTION_DDOT":"0.0000000000000","CLASSIFICATION_TYPE":"U","REF_FRAME":"TEME","ARG_OF_PERICENTER":"26.6802","LAUNCH_DATE":"2020-06-13","SITE":"AFETR","OBJECT_NAME":"STARLINK-1469","APOAPSIS":"334.640","COUNTRY_CODE":"US","MEAN_ANOMALY":"333.4793","OBJECT_ID":"2020-038Y","ECCENTRICITY":"0.00111960","OBJECT_TYPE":"PAYLOAD","RCS_SIZE":"LARGE","PERIAPSIS":"319.626","EPHEMERIS_TYPE":"0"},{"CENTER_NAME":"EARTH","RA_OF_ASC_NODE":"127.5526","MEAN_ELEMENT_THEORY":"SGP4","FILE":"3508171","NORAD_CAT_ID":"45753","SEMIMAJOR_AXIS":"6925.350","MEAN_MOTION_DOT":"-0.00001964","EPOCH":"2022-07-05T06:01:28.915968","BSTAR":"-0.00011298000000","GP_ID":"207475443","TIME_SYSTEM":"UTC","TLE_LINE1":"1 45753U 20038Z   22186.25102912 -.00001964  00000-0 -11298-3 0  9994","INCLINATION":"53.0530","ELEMENT_SET_NO":"999","REV_AT_EPOCH":"11399","TLE_LINE2":"2 45753  53.0530 127.5526 0002064  71.0798 289.0415 15.06399507113991","DECAY_DATE":null,"PERIOD":"95.592","SITE":"AFETR","APOAPSIS":"548.644","OBJECT_NAME":"STARLINK-1476","COUNTRY_CODE":"US","LAUNCH_DATE":"2020-06-13","ARG_OF_PERICENTER":"71.0798","REF_FRAME":"TEME","MEAN_MOTION":"15.06399507","MEAN_MOTION_DDOT":"0.0000000000000","CLASSIFICATION_TYPE":"U","PERIAPSIS":"545.786","EPHEMERIS_TYPE":"0","OBJECT_TYPE":"PAYLOAD","RCS_SIZE":"LARGE","MEAN_ANOMALY":"289.0415","OBJECT_ID":"2020-038Z","ECCENTRICITY":"0.00020640"},{"RA_OF_ASC_NODE":"127.5314","CENTER_NAME":"EARTH","MEAN_ELEMENT_THEORY":"SGP4","FILE":"3508171","NORAD_CAT_ID":"45754","SEMIMAJOR_AXIS":"6925.370","BSTAR":"-0.00007562100000","EPOCH":"2022-07-05T06:06:48.307392","MEAN_MOTION_DOT":"-0.00001407","GP_ID":"207473696","TLE_LINE1":"1 45754U 20038AA  22186.25472578 -.00001407  00000-0 -75621-4 0  9996","TIME_SYSTEM":"UTC","INCLINATION":"53.0543","REV_AT_EPOCH":"11399","ELEMENT_SET_NO":"999","PERIOD":"95.593","TLE_LINE2":"2 45754  53.0543 127.5314 0001567  78.8493 281.2672 15.06392955113994","DECAY_DATE":null,"APOAPSIS":"548.320","OBJECT_NAME":"STARLINK-1477","SITE":"AFETR","COUNTRY_CODE":"US","LAUNCH_DATE":"2020-06-13","ARG_OF_PERICENTER":"78.8493","REF_FRAME":"TEME","MEAN_MOTION":"15.06392955","CLASSIFICATION_TYPE":"U","MEAN_MOTION_DDOT":"0.0000000000000","EPHEMERIS_TYPE":"0","PERIAPSIS":"546.150","OBJECT_TYPE":"PAYLOAD","RCS_SIZE":"LARGE","MEAN_ANOMALY":"281.2672","OBJECT_ID":"2020-038AA","ECCENTRICITY":"0.00015670"},{"MEAN_ELEMENT_THEORY":"SGP4","RA_OF_ASC_NODE":"126.2621","CENTER_NAME":"EARTH","NORAD_CAT_ID":"45755","FILE":"3508171","BSTAR":"-0.00004600300000","EPOCH":"2022-07-05T12:55:29.207136","MEAN_MOTION_DOT":"-0.00000967","SEMIMAJOR_AXIS":"6925.362","GP_ID":"207474446","TLE_LINE1":"1 45755U 20038AB  22186.53853249 -.00000967  00000-0 -46003-4 0  9998","TIME_SYSTEM":"UTC","REV_AT_EPOCH":"11402","ELEMENT_SET_NO":"999","INCLINATION":"53.0531","PERIOD":"95.592","TLE_LINE2":"2 45755  53.0531 126.2621 0001628  60.5390 299.5761 15.06395470114022","DECAY_DATE":null,"COUNTRY_CODE":"US","OBJECT_NAME":"STARLINK-1478","APOAPSIS":"548.355","SITE":"AFETR","LAUNCH_DATE":"2020-06-13","ARG_OF_PERICENTER":"60.5390","REF_FRAME":"TEME","CLASSIFICATION_TYPE":"U","MEAN_MOTION_DDOT":"0.0000000000000","MEAN_MOTION":"15.06395470","EPHEMERIS_TYPE":"0","PERIAPSIS":"546.100","RCS_SIZE":"LARGE","OBJECT_TYPE":"PAYLOAD","OBJECT_ID":"2020-038AB","ECCENTRICITY":"0.00016280","MEAN_ANOMALY":"299.5761"},{"TLE_LINE2":"2 45756  53.0554 127.4643 0001755  62.1372 297.9795 15.06385721115101","DECAY_DATE":null,"PERIOD":"95.593","INCLINATION":"53.0554","ELEMENT_SET_NO":"999","REV_AT_EPOCH":"11510","TIME_SYSTEM":"UTC","TLE_LINE1":"1 45756U 20038AC  22186.26852573 -.00001372  00000-0 -73214-4 0  9993","GP_ID":"207480529","SEMIMAJOR_AXIS":"6925.392","MEAN_MOTION_DOT":"-0.00001372","EPOCH":"2022-07-05T06:26:40.623072","BSTAR":"-0.00007321400000","FILE":"3508180","NORAD_CAT_ID":"45756","RA_OF_ASC_NODE":"127.4643","CENTER_NAME":"EARTH","MEAN_ELEMENT_THEORY":"SGP4","MEAN_ANOMALY":"297.9795","ECCENTRICITY":"0.00017550","OBJECT_ID":"2020-038AC","OBJECT_TYPE":"PAYLOAD","RCS_SIZE":"LARGE","PERIAPSIS":"546.042","EPHEMERIS_TYPE":"0","MEAN_MOTION":"15.06385721","MEAN_MOTION_DDOT":"0.0000000000000","CLASSIFICATION_TYPE":"U","REF_FRAME":"TEME","ARG_OF_PERICENTER":"62.1372","LAUNCH_DATE":"2020-06-13","SITE":"AFETR","OBJECT_NAME":"STARLINK-1484","APOAPSIS":"548.473","COUNTRY_CODE":"US"},{"PERIAPSIS":"545.705","EPHEMERIS_TYPE":"0","RCS_SIZE":"LARGE","OBJECT_TYPE":"PAYLOAD","OBJECT_ID":"2020-038AD","ECCENTRICITY":"0.00021530","MEAN_ANOMALY":"295.7420","COUNTRY_CODE":"US","SITE":"AFETR","OBJECT_NAME":"STARLINK-1486","APOAPSIS":"548.687","LAUNCH_DATE":"2020-06-13","REF_FRAME":"TEME","ARG_OF_PERICENTER":"64.3791","MEAN_MOTION_DDOT":"0.0000000000000","CLASSIFICATION_TYPE":"U","MEAN_MOTION":"15.06405747","GP_ID":"207474943","TLE_LINE1":"1 45757U 20038AD  22186.55326327  .00000699  00000-0  65805-4 0  9995","TIME_SYSTEM":"UTC","ELEMENT_SET_NO":"999","REV_AT_EPOCH":"11402","INCLINATION":"53.0548","TLE_LINE2":"2 45757  53.0548 126.1966 0002153  64.3791 295.7420 15.06405747114023","DECAY_DATE":null,"PERIOD":"95.592","RA_OF_ASC_NODE":"126.1966","MEAN_ELEMENT_THEORY":"SGP4","CENTER_NAME":"EARTH","NORAD_CAT_ID":"45757","FILE":"3508171","MEAN_MOTION_DOT":"0.00000699","EPOCH":"2022-07-05T13:16:41.946528","BSTAR":"0.00006580500000","SEMIMAJOR_AXIS":"6925.331"},{"APOAPSIS":"548.611","OBJECT_NAME":"STARLINK-1487","SITE":"AFETR","COUNTRY_CODE":"US","LAUNCH_DATE":"2020-06-13","ARG_OF_PERICENTER":"66.8382","REF_FRAME":"TEME","MEAN_MOTION":"15.06393981","CLASSIFICATION_TYPE":"U","MEAN_MOTION_DDOT":"0.0000000000000","EPHEMERIS_TYPE":"0","PERIAPSIS":"545.853","OBJECT_TYPE":"PAYLOAD","RCS_SIZE":"LARGE","MEAN_ANOMALY":"293.2816","ECCENTRICITY":"0.00019910","OBJECT_ID":"2020-038AE","MEAN_ELEMENT_THEORY":"SGP4","RA_OF_ASC_NODE":"126.2238","CENTER_NAME":"EARTH","FILE":"3508171","NORAD_CAT_ID":"45758","SEMIMAJOR_AXIS":"6925.367","BSTAR":"-0.00004904000000","EPOCH":"2022-07-05T13:06:06.662880","MEAN_MOTION_DOT":"-0.00001012","GP_ID":"207474197","TIME_SYSTEM":"UTC","TLE_LINE1":"1 45758U 20038AE  22186.54591045 -.00001012  00000-0 -49040-4 0  9991","INCLINATION":"53.0546","REV_AT_EPOCH":"11402","ELEMENT_SET_NO":"999","PERIOD":"95.593","TLE_LINE2":"2 45758  53.0546 126.2238 0001991  66.8382 293.2816 15.06393981114025","DECAY_DATE":null},{"MEAN_MOTION_DOT":"-0.00000983","BSTAR":"-0.00004708100000","EPOCH":"2022-07-05T12:39:34.799904","SEMIMAJOR_AXIS":"6925.385","CENTER_NAME":"EARTH","RA_OF_ASC_NODE":"126.3115","MEAN_ELEMENT_THEORY":"SGP4","NORAD_CAT_ID":"45759","FILE":"3508171","ELEMENT_SET_NO":"999","REV_AT_EPOCH":"11402","INCLINATION":"53.0564","TLE_LINE2":"2 45759  53.0564 126.3115 0002238  59.7600 300.3610 15.06388035114026","DECAY_DATE":null,"PERIOD":"95.593","GP_ID":"207473946","TLE_LINE1":"1 45759U 20038AF  22186.52748611 -.00000983  00000-0 -47081-4 0  9992","TIME_SYSTEM":"UTC","ARG_OF_PERICENTER":"59.7600","REF_FRAME":"TEME","MEAN_MOTION_DDOT":"0.0000000000000","CLASSIFICATION_TYPE":"U","MEAN_MOTION":"15.06388035","COUNTRY_CODE":"US","SITE":"AFETR","APOAPSIS":"548.800","OBJECT_NAME":"STARLINK-1493","LAUNCH_DATE":"2020-06-13","RCS_SIZE":"LARGE","OBJECT_TYPE":"PAYLOAD","OBJECT_ID":"2020-038AF","ECCENTRICITY":"0.00022380","MEAN_ANOMALY":"300.3610","PERIAPSIS":"545.700","EPHEMERIS_TYPE":"0"},{"OBJECT_ID":"2020-038AG","ECCENTRICITY":"0.00021180","MEAN_ANOMALY":"291.7754","RCS_SIZE":"LARGE","OBJECT_TYPE":"PAYLOAD","PERIAPSIS":"545.758","EPHEMERIS_TYPE":"0","MEAN_MOTION_DDOT":"0.0000000000000","CLASSIFICATION_TYPE":"U","MEAN_MOTION":"15.06396340","REF_FRAME":"TEME","ARG_OF_PERICENTER":"68.3460","LAUNCH_DATE":"2020-06-13","COUNTRY_CODE":"US","SITE":"AFETR","OBJECT_NAME":"STARLINK-1494","APOAPSIS":"548.692","DECAY_DATE":null,"TLE_LINE2":"2 45760  53.0533 127.4894 0002118  68.3460 291.7754 15.06396340113992","PERIOD":"95.592","ELEMENT_SET_NO":"999","REV_AT_EPOCH":"11399","INCLINATION":"53.0533","TLE_LINE1":"1 45760U 20038AG  22186.26577907 -.00001280  00000-0 -67032-4 0  9992","TIME_SYSTEM":"UTC","GP_ID":"207474698","MEAN_MOTION_DOT":"-0.00001280","BSTAR":"-0.00006703200000","EPOCH":"2022-07-05T06:22:43.311648","SEMIMAJOR_AXIS":"6925.360","NORAD_CAT_ID":"45760","FILE":"3508171","MEAN_ELEMENT_THEORY":"SGP4","RA_OF_ASC_NODE":"127.4894","CENTER_NAME":"EARTH"},{"OBJECT_NAME":"STARLINK-1495","APOAPSIS":"341.932","SITE":"AFETR","COUNTRY_CODE":"US","LAUNCH_DATE":"2020-06-13","ARG_OF_PERICENTER":"7.9959","REF_FRAME":"TEME","MEAN_MOTION":"15.76768749","CLASSIFICATION_TYPE":"U","MEAN_MOTION_DDOT":"0.0000000000000","EPHEMERIS_TYPE":"0","PERIAPSIS":"337.277","OBJECT_TYPE":"PAYLOAD","RCS_SIZE":"LARGE","MEAN_ANOMALY":"352.1115","ECCENTRICITY":"0.00034650","OBJECT_ID":"2020-038AH","RA_OF_ASC_NODE":"0.4634","MEAN_ELEMENT_THEORY":"SGP4","CENTER_NAME":"EARTH","FILE":"3508181","NORAD_CAT_ID":"45761","SEMIMAJOR_AXIS":"6717.740","EPOCH":"2022-07-05T17:16:17.585472","BSTAR":"0.00006751900000","MEAN_MOTION_DOT":"0.00010429","GP_ID":"207480619","TIME_SYSTEM":"UTC","TLE_LINE1":"1 45761U 20038AH  22186.71964798  .00010429  00000-0  67519-4 0  9994","INCLINATION":"53.0442","REV_AT_EPOCH":"11674","ELEMENT_SET_NO":"999","PERIOD":"91.326","DECAY_DATE":null,"TLE_LINE2":"2 45761  53.0442   0.4634 0003465   7.9959 352.1115 15.76768749116744"}];
